CAS-2T & KS-1Q          
1 41847U 16066G   20347.11509392  .00000152  00000-0  32410-4 0  9991
2 41847  98.6307  39.1980 0366440  59.4615 304.2203 14.38125079214957
NAYIF-1 (EO-88)         
1 42017U 17008BX  20346.90122487  .00003384  00000-0  12962-3 0  9999
2 42017  97.3416  51.7354 0007491  62.5536 297.6464 15.27191784212625
ZHUHAI-1 02 (CAS-4B)    
1 42759U 17034B   20347.12286506  .00000417  00000-0  38644-4 0  9999
2 42759  43.0166 130.7838 0009507  63.2210 106.3033 15.09994502192826
ZHUHAI-1 01 (CAS-4A)    
1 42761U 17034D   20347.12393184  .00000485  00000-0  42675-4 0  9997
2 42761  43.0163 129.9617 0009736  65.1813 103.9757 15.10074890192822
MAX VALIER SAT          
1 42778U 17036P   20346.89490622  .00001997  00000-0  87568-4 0  9994
2 42778  97.2834  35.4249 0013670 114.9455 245.3204 15.23038279192738
RADFXSAT (FOX-1B)       
1 43017U 17073E   20346.70732029  .00000803  00000-0  67525-4 0  9998
2 43017  97.7168 252.0422 0255697 192.3706 167.1154 14.79206871165365
FOX-1D (AO-92)          
1 43137U 18004AC  20347.18752140  .00002361  00000-0  98584-4 0  9995
2 43137  97.4295  57.0056 0009962 142.9952 217.1974 15.24597479162112
DIWATA-2B               
1 43678U 18084H   20347.03762940  .00000488  00000-0  54221-4 0  9994
2 43678  97.9035 105.6521 0008945 317.4984  42.5542 14.91686565115498
ES'HAIL 2               
1 43700U 18090A   20346.89424351  .00000153  00000-0  00000-0 0  9992
2 43700   0.0141  53.6916 0001521 235.9836 139.1066  1.00271866  7483
FOX-1CLIFF (AO-95)      
1 43770U 18099N   20346.73677462  .00000912  00000-0  88259-4 0  9993
2 43770  97.6888  54.8626 0013584 330.1107  29.9337 14.95131900110408
ITASAT 1                
1 43786U 18099AE  20347.16282977  .00000474  00000-0  47985-4 0  9995
2 43786  97.6908  55.8271 0014121 321.8765  38.1456 14.95454879110496
JY1SAT (JO-97)          
1 43803U 18099AX  20347.15503243  .00000949  00000-0  90396-4 0  9997
2 43803  97.6868  55.5994 0013977 322.0830  37.9405 14.95661079110497
PSAT2 (NO-104)          
1 44354U 19036R   20347.15367222  .00021426  00000-0  30132-3 0  9990
2 44354  28.5286 290.5550 0347078  53.8178 309.4004 15.07993978 80613
BRICSAT2 (NO-103)       
1 44355U 19036S   20346.14007276  .00048035  00000-0  61048-3 0  9994
2 44355  28.5273 276.3305 0309386  76.9194 286.5740 15.17715196 80688
JAISAT-1                
1 44419U 19038F   20346.87277571  .00001778  00000-0  10352-3 0  9999
2 44419  97.5634 306.6587 0019846 237.0540 122.8783 15.13197434 79423
DUCHIFAT-3              
1 44854U 19089C   20346.79737286  .00000788  00000-0  69817-4 0  9994
2 44854  36.9634 130.1709 0008160  46.7628 313.3789 14.99244646 54920
RS-44 & BREEZE-KM R/B   
1 44909U 19096E   20346.83300425  .00000014  00000-0  98885-5 0  9999
2 44909  82.5225 237.4449 0217455 171.5220 188.9653 12.79707687 44874
ORBITAL FACTORY 2 (OF-2)
1 45113U 19071C   20346.84676869  .00003861  00000-0  12539-3 0  9992
2 45113  51.6417 226.1445 0012056 339.8269  20.2235 15.34344651 48358
HUSKYSAT-1              
1 45119U 19071J   20346.93350916  .00004373  00000-0  13990-3 0  9991
2 45119  51.6418 225.2231 0011415 336.4158  23.6299 15.34486594 48367
BY70-2                  
1 45857U 20042B   20347.09601009  .00001673  00000-0  24707-3 0  9998
2 45857  98.0011  58.7169 0012474  98.8002 261.4622 14.76536243 23897
SALSAT                  
1 46495U 20068K   20346.89907692  .00001487  00000-0  11392-3 0  9998
2 46495  97.6758 279.7150 0017209 350.8519   9.2391 15.03293418 11151
BY70-3                  
1 46839U 20079N   20347.24502903  .00004126  00000-0  13412-3 0  9996
2 46839  97.2625  58.7760 0008237 147.1257 289.9870 15.32426906  5526
